ONEWEB-0056             
1 45159U 20008AE  24291.56419916  .00000061  00000+0  13715-3 0  9999
2 45159  87.8931 157.2302 0001458  82.8209 277.3084 13.10369775229364
ONEWEB-0057             
1 45160U 20008AF  24292.18169667 -.00000055  00000+0 -19258-3 0  9998
2 45160  87.8937 157.1123 0001585  82.5260 277.6047 13.10370594229348
ONEWEB-0058             
1 45161U 20008AG  24291.32863477  .00000436  00000+0  12123-2 0  9998
2 45161  87.8928 157.3098 0001772  80.0247 280.1080 13.10381576229560
ONEWEB-0059             
1 45162U 20008AH  24292.16510840  .00000584  00000+0  16353-2 0  9998
2 45162  87.8935 157.1300 0001716  77.1938 282.9381 13.10372177229566
ONEWEB-0062             
1 45163U 20008AJ  24292.19165104 -.00000489  00000+0 -14358-2 0  9990
2 45163  87.8932 157.1080 0001808  70.0925 290.0397 13.10369255229446
ONEWEB-0065             
1 45164U 20008AK  24292.17008661  .00000494  00000+0  13776-2 0  9990
2 45164  87.8937 157.1236 0001455  81.2111 278.9181 13.10371470229127
ONEWEB-0066             
1 45424U 20020A   24292.12957890  .00000600  00000+0  16563-2 0  9991
2 45424  87.8911 141.9951 0001763  92.6331 267.4999 13.11421534223127
ONEWEB-0067             
1 45425U 20020B   24292.09073866 -.00000181  00000+0 -54786-3 0  9996
2 45425  87.8897 141.9496 0001582  90.8824 269.2485 13.11420461223174
